{
    "links": {
        "self": "http://www.neowsapp.com/rest/v1/neo/3729137?api_key=iIulBulltgU6a56xZRHN4H3l9WmuAYTsLGpBGhQ2"
    },
    "id": "3729137",
    "neo_reference_id": "3729137",
    "name": "(2015 TM21)",
    "designation": "2015 TM21",
    "nasa_jpl_url": "http://ssd.jpl.nasa.gov/sbdb.cgi?sstr=3729137",
    "absolute_magnitude_h": 26.1,
    "estimated_diameter": {
        "kilometers": {
            "estimated_diameter_min": 0.0160160338,
            "estimated_diameter_max": 0.0358129403
        },
        "meters": {
            "estimated_diameter_min": 16.0160337979,
            "estimated_diameter_max": 35.8129403019
        },
        "miles": {
            "estimated_diameter_min": 0.0099518989,
            "estimated_diameter_max": 0.0222531225
        },
        "feet": {
            "estimated_diameter_min": 52.5460443254,
            "estimated_diameter_max": 117.4965270602
        }
    },
    "is_potentially_hazardous_asteroid": false,
    "close_approach_data": [
        {
            "close_approach_date": "1923-09-28",
            "close_approach_date_full": "1923-Sep-28 08:06",
            "epoch_date_close_approach": -1459871640000,
            "relative_velocity": {
                "kilometers_per_second": "14.6568165364",
                "kilometers_per_hour": "52764.5395311862",
                "miles_per_hour": "32785.832910364"
            },
            "miss_distance": {
                "astronomical": "0.1736443101",
                "lunar": "67.5476366289",
                "kilometers": "25976818.928579487",
                "miles": "16141246.8026594406"
            },
            "orbiting_body": "Earth"
        },
        {
            "close_approach_date": "2015-10-09",
            "close_approach_date_full": "2015-Oct-09 13:55",
            "epoch_date_close_approach": 1444398900000,
            "relative_velocity": {
                "kilometers_per_second": "11.6211836326",
                "kilometers_per_hour": "41836.2610772909",
                "miles_per_hour": "25995.42566772"
            },
            "miss_distance": {
                "astronomical": "0.0291920448",
                "lunar": "11.3557054272",
                "kilometers": "4367067.723024576",
                "miles": "2713570.0531721088"
            },
            "orbiting_body": "Earth"
        },
        {
            "close_approach_date": "2200-01-15",
            "close_approach_date_full": "2200-Jan-15 06:13",
            "epoch_date_close_approach": 7259350380000,
            "relative_velocity": {
                "kilometers_per_second": "17.5118971915",
                "kilometers_per_hour": "63042.8298893953",
                "miles_per_hour": "39172.3628276634"
            },
            "miss_distance": {
                "astronomical": "0.4982188456",
                "lunar": "193.8071309384",
                "kilometers": "74532478.095618872",
                "miles": "46312334.3571375536"
            },
            "orbiting_body": "Earth"
        }
    ],
    "orbital_data": {
        "orbit_id": "5",
        "orbit_determination_date": "2017-04-06 08:31:35",
        "first_observation_date": "2015-10-08",
        "last_observation_date": "2015-10-10",
        "data_arc_in_days": 2,
        "observations_used": 38,
        "orbit_uncertainty": "8",
        "minimum_orbit_intersection": ".029192",
        "jupiter_tisserand_invariant": "4.462",
        "epoch_osculation": "2457304.5",
        "eccentricity": ".3466909340729948",
        "semi_major_axis": "1.482138034895749",
        "inclination": "18.08468147727442",
        "ascending_node_longitude": "13.4869273090914",
        "orbital_period": "659.0697903295619",
        "perihelion_distance": ".9682942151526291",
        "perihelion_argument": "40.66491448205537",
        "aphelion_distance": "1.995981854638869",
        "perihelion_time": "2457338.219611456546",
        "mean_anomaly": "341.5815255038673",
        "mean_motion": ".5462243988151623",
        "equinox": "J2000",
        "orbit_class": {
            "orbit_class_type": "APO",
            "orbit_class_description": "Near-Earth asteroid orbits which cross the Earth’s orbit similar to that of 1862 Apollo",
            "orbit_class_range": "a (semi-major axis) > 1.0 AU; q (perihelion) < 1.017 AU"
        }
    },
    "is_sentry_object": false
}